{
  "type": "FeatureCollection",
  "features": [
    {
      "type": "Feature",
      "geometry": {
        "type": "Point",
        "crs": {
          "type": "name",
          "properties": {
            "name": "urn:ogc:def:crs:OGC:1.3:CRS84"
          }
        },
        "coordinates": [
          2.5248035896914,
          49.0637230779515
        ]
      },
      "properties": {
        "code_bss": "01541X0038/F1",
        "bss_id": "BSS000LLTT",
        "libelle_pe": "PIÉZOMÈTRE DU LIEU-DIT LA SUCRERIE (VILLERON -95)",
        "nom_commune": "Villeron",
        "date_debut_mesure": "1892-01-01",
        "date_fin_mesure": "2026-07-23",
        "nb_mesures_piezo": 6657,
        "altitude_station": "120.0",
        "profondeur_investigation": 85.25,
        "codes_masse_eau_edl": [
          "HG104"
        ],
        "noms_masse_eau_edl": [
          "Éocène du Valois"
        ],
        "date_maj": "Wed Sep 18 21:57:35 CEST 2024"
      }
    },
    {
      "type": "Feature",
      "geometry": {
        "type": "Point",
        "crs": {
          "type": "name",
          "properties": {
            "name": "urn:ogc:def:crs:OGC:1.3:CRS84"
          }
        },
        "coordinates": [
          1.7115841848038,
          49.19751702312
        ]
      },
      "properties": {
        "code_bss": "01258X0020/S1",
        "bss_id": "BSS000JRAR",
        "libelle_pe": "Puits du hameau de Buchet (Buhy - 95)",
        "nom_commune": "Buhy",
        "date_debut_mesure": "1969-03-10",
        "date_fin_mesure": "2026-07-22",
        "nb_mesures_piezo": 12283,
        "altitude_station": "63.0",
        "profondeur_investigation": 24.0,
        "codes_masse_eau_edl": [
          "HG107"
        ],
        "noms_masse_eau_edl": [
          "Éocène et Craie du Vexin français"
        ],
        "date_maj": "Thu Sep 19 11:45:47 CEST 2024"
      }
    },
    {
      "type": "Feature",
      "geometry": {
        "type": "Point",
        "crs": {
          "type": "name",
          "properties": {
            "name": "urn:ogc:def:crs:OGC:1.3:CRS84"
          }
        },
        "coordinates": [
          1.9012756695202,
          49.1456949663103
        ]
      },
      "properties": {
        "code_bss": "01266X1013/S1",
        "bss_id": "BSS000JSGS",
        "libelle_pe": "PIÉZOMÈTRE DU HAMEAU DE BERCAGNY (CHARS -95)",
        "nom_commune": "Chars",
        "date_debut_mesure": "1977-07-18",
        "date_fin_mesure": "2026-07-23",
        "nb_mesures_piezo": 13050,
        "altitude_station": "103.0",
        "profondeur_investigation": 25.5,
        "codes_masse_eau_edl": [
          "HG107"
        ],
        "noms_masse_eau_edl": [
          "Éocène et Craie du Vexin français"
        ],
        "date_maj": "Thu Sep 19 14:41:55 CEST 2024"
      }
    },
    {
      "type": "Feature",
      "geometry": {
        "type": "Point",
        "crs": {
          "type": "name",
          "properties": {
            "name": "urn:ogc:def:crs:OGC:1.3:CRS84"
          }
        },
        "coordinates": [
          1.89757571308056,
          49.0838464372287
        ]
      },
      "properties": {
        "code_bss": "01522X0069/PZ2008",
        "bss_id": "BSS000LGAW",
        "libelle_pe": "Piézomètre de la place Roland Vasseur (Théméricourt - 95)",
        "nom_commune": "Théméricourt",
        "date_debut_mesure": "1981-05-11",
        "date_fin_mesure": "2026-07-23",
        "nb_mesures_piezo": 12670,
        "altitude_station": "83.0",
        "profondeur_investigation": 30.0,
        "codes_masse_eau_edl": [
          "HG107"
        ],
        "noms_masse_eau_edl": [
          "Éocène et Craie du Vexin français"
        ],
        "date_maj": "Thu Sep 19 14:29:16 CEST 2024"
      }
    },
    {
      "type": "Feature",
      "geometry": {
        "type": "Point",
        "crs": {
          "type": "name",
          "properties": {
            "name": "urn:ogc:def:crs:OGC:1.3:CRS84"
          }
        },
        "coordinates": [
          2.20980634146459,
          49.1059845471213
        ]
      },
      "properties": {
        "code_bss": "01531X0047/F",
        "bss_id": "BSS000LHVY",
        "libelle_pe": "PIÉZOMÈTRE DE L'ISLE-ADAM (ISLE-ADAM - 95)",
        "nom_commune": "L'Isle-Adam",
        "date_debut_mesure": "1982-11-09",
        "date_fin_mesure": "2026-05-23",
        "nb_mesures_piezo": 12099,
        "altitude_station": "24.0",
        "profondeur_investigation": 630.0,
        "codes_masse_eau_edl": [
          "HG218"
        ],
        "noms_masse_eau_edl": [
          "Albien-Néocomien captif"
        ],
        "date_maj": "Tue Oct 08 00:23:28 CEST 2024"
      }
    },
    {
      "type": "Feature",
      "geometry": {
        "type": "Point",
        "crs": {
          "type": "name",
          "properties": {
            "name": "urn:ogc:def:crs:OGC:1.3:CRS84"
          }
        },
        "coordinates": [
          2.48842394281778,
          49.0690855704155
        ]
      },
      "properties": {
        "code_bss": "01534X0049/F",
        "bss_id": "BSS000LJMF",
        "libelle_pe": "Piézomètre de Puiseux-en-France (Puiseux-en-France - 95)",
        "nom_commune": "Puiseux-en-France",
        "date_debut_mesure": "1995-01-31",
        "date_fin_mesure": "2026-07-23",
        "nb_mesures_piezo": 6795,
        "altitude_station": "131.0",
        "profondeur_investigation": 104.0,
        "codes_masse_eau_edl": [
          "HG104"
        ],
        "noms_masse_eau_edl": [
          "Éocène du Valois"
        ],
        "date_maj": "Mon Feb 03 19:09:30 CET 2025"
      }
    }
  ]
}
