{
"type": "FeatureCollection",
"name": "L_STATIONS_MESURE_QUALITE_P_095",
"crs": { "type": "name", "properties": { "name": "urn:ogc:def:crs:OGC:1.3:CRS84" } },
"xy_coordinate_resolution": 1e-05,
"features": [
{"type":"Feature","properties":{"CdStationM":"03082758","LbStationM":"\"LE ROSNE A GARGES-LES-GONESSE 1\"","DurStation":null,"CoordXStat":657736.0,"CoordYStat":6875296,"CdProjStat":"\"26\"","LibellePro":"\"RGF93 / Lambert 93\"","CodeCommun":"\"95268\"","LbCommune":"\"Garges-lès-Gonesse\"","CodeDepart":"\"95\"","LbDepartem":"\"Val-d'Oise\"","CodeRegion":"\"11\"","LbRegion":"\"Île-de-France\"","CdMasseDEa":"\"HR157A-F7060600\"","CdEuMasseD":"\"FRHR157A-F7060600\"","NomMasseDE":"\"Petit Rosne\"","CdEuSsBass":"\"FRH_IF\"","NomSsBassi":"\"Ile de France\"","CdBassinDC":"\"H\"","CdEuBassin":"\"FRH\"","NomEuBassi":"\"La Seine et les cours d'eau côtiers normands\"","CdTronconH":"\"F7060600\"","CdCoursdEa":"\"F7060600\"","NomCoursdE":"\"Le Rosne\"","CodeTypEth":"\"2\"","LibelleTyp":"\"Station qualité située sur un cours d'eau\"","ComStation":null,"DateCreati":"2008-05-14","DateArretA":null,"DateMAJInf":"2008-05-14","FinaliteSt":"\"0\"","LocPrecise":"\"Non renseignée\"","CodeNature":"\"M\"","LibelleNat":"\"Station de mesure Manuelle\"","AltitudePo":44,"PkPointTro":null,"PremierMoi":null,"Superficie":null,"Superfic_1":null,"DatePrelev":"2024-12-18","Temp":"9.8 °C","pH":"7.81 unité pH","Conducti":"494 µS/cm","Odissous":"9.1 mg(O2)/L","MES":"9.6 mg/L"},"geometry":{"type":"Point","coordinates":[2.42266,48.97621]}},
{"type":"Feature","properties":{"CdStationM":"03082781","LbStationM":"\"LE CROULD A GARGES-LES-GONESSE 1\"","DurStation":null,"CoordXStat":657110.00000000012,"CoordYStat":6874054,"CdProjStat":"\"26\"","LibellePro":"\"RGF93 / Lambert 93\"","CodeCommun":"\"95268\"","LbCommune":"\"Garges-lès-Gonesse\"","CodeDepart":"\"95\"","LbDepartem":"\"Val-d'Oise\"","CodeRegion":"\"11\"","LbRegion":"\"Île-de-France\"","CdMasseDEa":"\"HR157B\"","CdEuMasseD":"\"FRHR157B\"","NomMasseDE":"\"le Croult du lac departemental de la Courneuve au confluent de la Seine  exclu\"","CdEuSsBass":"\"FRH_IF\"","NomSsBassi":"\"Ile de France\"","CdBassinDC":"\"H\"","CdEuBassin":"\"FRH\"","NomEuBassi":"\"La Seine et les cours d'eau côtiers normands\"","CdTronconH":"\"F7070410\"","CdCoursdEa":"\"F70-0410\"","NomCoursdE":"\"Le Crould\"","CodeTypEth":"\"2\"","LibelleTyp":"\"Station qualité située sur un cours d'eau\"","ComStation":null,"DateCreati":"2010-03-08","DateArretA":null,"DateMAJInf":"2010-03-08","FinaliteSt":"\"0\"","LocPrecise":"\"Non renseignée\"","CodeNature":"\"M\"","LibelleNat":"\"Station de mesure Manuelle\"","AltitudePo":41,"PkPointTro":null,"PremierMoi":null,"Superficie":null,"Superfic_1":null,"DatePrelev":"2024-12-18","Temp":"9.7 °C","pH":"8 unité pH","Conducti":"872 µS/cm","Odissous":"9.8 mg(O2)/L","MES":"8.3 mg/L"},"geometry":{"type":"Point","coordinates":[2.41423,48.965]}},
{"type":"Feature","properties":{"CdStationM":"03127550","LbStationM":"\"LE RU DE LA VALLÉE DU ROI A VETHEUIL 2\"","DurStation":null,"CoordXStat":605105.0,"CoordYStat":6885695,"CdProjStat":"\"26\"","LibellePro":"\"RGF93 / Lambert 93\"","CodeCommun":"\"95651\"","LbCommune":"\"Vétheuil\"","CodeDepart":"\"95\"","LbDepartem":"\"Val-d'Oise\"","CodeRegion":"\"11\"","LbRegion":"\"Île-de-France\"","CdMasseDEa":"\"HR230B-H3085000\"","CdEuMasseD":"\"FRHR230B-H3085000\"","NomMasseDE":"\"ru de la vallee du roi\"","CdEuSsBass":"\"FRH_IF\"","NomSsBassi":"\"Ile de France\"","CdBassinDC":"\"H\"","CdEuBassin":"\"FRH\"","NomEuBassi":"\"La Seine et les cours d'eau côtiers normands\"","CdTronconH":"\"H3085000\"","CdCoursdEa":"\"H3085000\"","NomCoursdE":"\"Ru de la Vallee du Roi\"","CodeTypEth":"\"2\"","LibelleTyp":"\"Station qualité située sur un cours d'eau\"","ComStation":null,"DateCreati":"2010-03-08","DateArretA":null,"DateMAJInf":"2010-03-08","FinaliteSt":"\"0\"","LocPrecise":"\"Non renseignée\"","CodeNature":"\"M\"","LibelleNat":"\"Station de mesure Manuelle\"","AltitudePo":22,"PkPointTro":null,"PremierMoi":null,"Superficie":null,"Superfic_1":null,"DatePrelev":"2024-12-19","Temp":"9.9 °C","pH":"8.5 unité pH","Conducti":"670 µS/cm","Odissous":"12 mg(O2)/L","MES":"50 mg/L"},"geometry":{"type":"Point","coordinates":[1.70146,49.06409]}},
{"type":"Feature","properties":{"CdStationM":"03137685","LbStationM":"\"LA THEVE A ASNIERES-SUR-OISE 2\"","DurStation":null,"CoordXStat":655056.0,"CoordYStat":6895220,"CdProjStat":"\"26\"","LibellePro":"\"RGF93 / Lambert 93\"","CodeCommun":"\"95026\"","LbCommune":"\"Asnières-sur-Oise\"","CodeDepart":"\"95\"","LbDepartem":"\"Val-d'Oise\"","CodeRegion":"\"11\"","LbRegion":"\"Île-de-France\"","CdMasseDEa":"\"HR227\"","CdEuMasseD":"\"FRHR227\"","NomMasseDE":"\"la Theve de sa source au confluent de L Oise  exclu\"","CdEuSsBass":"\"FRH_IF\"","NomSsBassi":"\"Ile de France\"","CdBassinDC":"\"H\"","CdEuBassin":"\"FRH\"","NomEuBassi":"\"La Seine et les cours d'eau côtiers normands\"","CdTronconH":"\"H2240500\"","CdCoursdEa":"\"H22-0500\"","NomCoursdE":"\"La Theve\"","CodeTypEth":"\"2\"","LibelleTyp":"\"Station qualité située sur un cours d'eau\"","ComStation":null,"DateCreati":"2001-09-12","DateArretA":null,"DateMAJInf":"2023-03-22","FinaliteSt":"\"0\"","LocPrecise":"\"Non renseignée\"","CodeNature":"\"M\"","LibelleNat":"\"Station de mesure Manuelle\"","AltitudePo":25,"PkPointTro":null,"PremierMoi":null,"Superficie":null,"Superfic_1":null,"DatePrelev":"2024-12-17","Temp":"7.9 °C","pH":"8.2 unité pH","Conducti":"888 µS/cm","Odissous":"9.9 mg(O2)/L","MES":"9.6 mg/L"},"geometry":{"type":"Point","coordinates":[2.38393,49.15517]}},
{"type":"Feature","properties":{"CdStationM":"03137810","LbStationM":"\"L'YSIEUX A LUZARCHES 2\"","DurStation":null,"CoordXStat":657363.0,"CoordYStat":6892763,"CdProjStat":"\"26\"","LibellePro":"\"RGF93 / Lambert 93\"","CodeCommun":"\"95352\"","LbCommune":"\"Luzarches\"","CodeDepart":"\"95\"","LbDepartem":"\"Val-d'Oise\"","CodeRegion":"\"11\"","LbRegion":"\"Île-de-France\"","CdMasseDEa":"\"HR227-H2246000\"","CdEuMasseD":"\"FRHR227-H2246000\"","NomMasseDE":"\"l ysieux\"","CdEuSsBass":"\"FRH_IF\"","NomSsBassi":"\"Ile de France\"","CdBassinDC":"\"H\"","CdEuBassin":"\"FRH\"","NomEuBassi":"\"La Seine et les cours d'eau côtiers normands\"","CdTronconH":"\"H2246000\"","CdCoursdEa":null,"NomCoursdE":null,"CodeTypEth":"\"2\"","LibelleTyp":"\"Station qualité située sur un cours d'eau\"","ComStation":null,"DateCreati":"2010-03-08","DateArretA":null,"DateMAJInf":"2022-03-02","FinaliteSt":"\"0\"","LocPrecise":"\"Non renseignée\"","CodeNature":"\"M\"","LibelleNat":"\"Station de mesure Manuelle\"","AltitudePo":39,"PkPointTro":null,"PremierMoi":null,"Superficie":null,"Superfic_1":null,"DatePrelev":"2024-12-17","Temp":"9.3 °C","pH":"8.4 unité pH","Conducti":"964 µS/cm","Odissous":"9.4 mg(O2)/L","MES":"6.1 mg/L"},"geometry":{"type":"Point","coordinates":[2.4158,49.13324]}},
{"type":"Feature","properties":{"CdStationM":"03138000","LbStationM":"\"L'OISE A BEAUMONT-SUR-OISE 1\"","DurStation":null,"CoordXStat":647848.0,"CoordYStat":6894199,"CdProjStat":"\"26\"","LibellePro":"\"RGF93 / Lambert 93\"","CodeCommun":"\"95052\"","LbCommune":"\"Beaumont-sur-Oise\"","CodeDepart":"\"95\"","LbDepartem":"\"Val-d'Oise\"","CodeRegion":"\"11\"","LbRegion":"\"Île-de-France\"","CdMasseDEa":"\"HR216A\"","CdEuMasseD":"\"FRHR216A\"","NomMasseDE":"\"L Oise du confluent du Therain  exclu  au confluent de l Esches  exclu\"","CdEuSsBass":"\"FRH_OISE\"","NomSsBassi":"\"Oise\"","CdBassinDC":"\"H\"","CdEuBassin":"\"FRH\"","NomEuBassi":"\"La Seine et les cours d'eau côtiers normands\"","CdTronconH":"\"H2250100\"","CdCoursdEa":"\"H---0100\"","NomCoursdE":"\"L'Oise\"","CodeTypEth":"\"2\"","LibelleTyp":"\"Station qualité située sur un cours d'eau\"","ComStation":null,"DateCreati":"2010-03-08","DateArretA":null,"DateMAJInf":"2011-10-10","FinaliteSt":"\"RCS\"","LocPrecise":"\"Non renseignée\"","CodeNature":"\"M\"","LibelleNat":"\"Station de mesure Manuelle\"","AltitudePo":30,"PkPointTro":null,"PremierMoi":null,"Superficie":null,"Superfic_1":null,"DatePrelev":"2024-12-17","Temp":"9.1 °C","pH":"8.3 unité pH","Conducti":"649 µS/cm","Odissous":"9.7 mg(O2)/L","MES":"85 mg/L"},"geometry":{"type":"Point","coordinates":[2.28526,49.14545]}},
{"type":"Feature","properties":{"CdStationM":"03138485","LbStationM":"\"L'ESCHES A PERSAN 1\"","DurStation":null,"CoordXStat":646836.0,"CoordYStat":6894163,"CdProjStat":"\"26\"","LibellePro":"\"RGF93 / Lambert 93\"","CodeCommun":"\"95487\"","LbCommune":"\"Persan\"","CodeDepart":"\"95\"","LbDepartem":"\"Val-d'Oise\"","CodeRegion":"\"11\"","LbRegion":"\"Île-de-France\"","CdMasseDEa":"\"HR216B\"","CdEuMasseD":"\"FRHR216B\"","NomMasseDE":"\"L Esches de sa source au confluent de l Oise  exclu\"","CdEuSsBass":"\"FRH_OISE\"","NomSsBassi":"\"Oise\"","CdBassinDC":"\"H\"","CdEuBassin":"\"FRH\"","NomEuBassi":"\"La Seine et les cours d'eau côtiers normands\"","CdTronconH":"\"H2258000\"","CdCoursdEa":"\"H2258000\"","NomCoursdE":"\"L'Esches\"","CodeTypEth":"\"2\"","LibelleTyp":"\"Station qualité située sur un cours d'eau\"","ComStation":null,"DateCreati":"2010-03-08","DateArretA":null,"DateMAJInf":"2010-03-08","FinaliteSt":"\"0\"","LocPrecise":"\"Non renseignée\"","CodeNature":"\"M\"","LibelleNat":"\"Station de mesure Manuelle\"","AltitudePo":26,"PkPointTro":null,"PremierMoi":null,"Superficie":null,"Superfic_1":null,"DatePrelev":"2024-12-17","Temp":"9.2 °C","pH":"8.4 unité pH","Conducti":"722 µS/cm","Odissous":"11.6 mg(O2)/L","MES":"6.9 mg/L"},"geometry":{"type":"Point","coordinates":[2.27139,49.14504]}},
{"type":"Feature","properties":{"CdStationM":"03138550","LbStationM":"\"LE RU DE PRESLES A MOURS 2\"","DurStation":null,"CoordXStat":646574.00000000012,"CoordYStat":6893022,"CdProjStat":"\"26\"","LibellePro":"\"RGF93 / Lambert 93\"","CodeCommun":"\"95436\"","LbCommune":"\"Mours\"","CodeDepart":"\"95\"","LbDepartem":"\"Val-d'Oise\"","CodeRegion":"\"11\"","LbRegion":"\"Île-de-France\"","CdMasseDEa":"\"HR228A-H2261000\"","CdEuMasseD":"\"FRHR228A-H2261000\"","NomMasseDE":"\"ru de presles\"","CdEuSsBass":"\"FRH_IF\"","NomSsBassi":"\"Ile de France\"","CdBassinDC":"\"H\"","CdEuBassin":"\"FRH\"","NomEuBassi":"\"La Seine et les cours d'eau côtiers normands\"","CdTronconH":"\"H2261000\"","CdCoursdEa":"\"H2261000\"","NomCoursdE":"\"Ru de Presles\"","CodeTypEth":"\"2\"","LibelleTyp":"\"Station qualité située sur un cours d'eau\"","ComStation":null,"DateCreati":"2010-03-08","DateArretA":null,"DateMAJInf":"2013-04-15","FinaliteSt":"\"0\"","LocPrecise":"\"Non renseignée\"","CodeNature":"\"M\"","LibelleNat":"\"Station de mesure Manuelle\"","AltitudePo":29,"PkPointTro":null,"PremierMoi":null,"Superficie":null,"Superfic_1":null,"DatePrelev":"2024-12-17","Temp":"9.6 °C","pH":"8.5 unité pH","Conducti":"970 µS/cm","Odissous":"9.8 mg(O2)/L","MES":"4.5 mg/L"},"geometry":{"type":"Point","coordinates":[2.26795,49.13476]}},
{"type":"Feature","properties":{"CdStationM":"03138728","LbStationM":"\"LE RU DU VIEUX MOUTIERS A L'ISLE-ADAM 2\"","DurStation":null,"CoordXStat":642594.65,"CoordYStat":6887769,"CdProjStat":"\"26\"","LibellePro":"\"RGF93 / Lambert 93\"","CodeCommun":"\"95313\"","LbCommune":"\"L'Isle-Adam\"","CodeDepart":"\"95\"","LbDepartem":"\"Val-d'Oise\"","CodeRegion":"\"11\"","LbRegion":"\"Île-de-France\"","CdMasseDEa":"\"HR228A-H2271000\"","CdEuMasseD":"\"FRHR228A-H2271000\"","NomMasseDE":"\"ru du vieux moutiers\"","CdEuSsBass":"\"FRH_IF\"","NomSsBassi":"\"Ile de France\"","CdBassinDC":"\"H\"","CdEuBassin":"\"FRH\"","NomEuBassi":"\"La Seine et les cours d'eau côtiers normands\"","CdTronconH":"\"H2271000\"","CdCoursdEa":null,"NomCoursdE":null,"CodeTypEth":"\"2\"","LibelleTyp":"\"Station qualité située sur un cours d'eau\"","ComStation":null,"DateCreati":"2013-12-11","DateArretA":null,"DateMAJInf":"2015-07-08","FinaliteSt":"\"0\"","LocPrecise":"\"Non renseignée\"","CodeNature":"\"M\"","LibelleNat":"\"Station de mesure Manuelle\"","AltitudePo":35,"PkPointTro":null,"PremierMoi":null,"Superficie":null,"Superfic_1":null,"DatePrelev":"2024-12-18","Temp":"7.8 °C","pH":"8.2 unité pH","Conducti":"947 µS/cm","Odissous":"9.4 mg(O2)/L","MES":"2 mg/L"},"geometry":{"type":"Point","coordinates":[2.21414,49.08719]}},
{"type":"Feature","properties":{"CdStationM":"03138800","LbStationM":"\"L'OISE A MERIEL 1\"","DurStation":null,"CoordXStat":641855.0,"CoordYStat":6887463,"CdProjStat":"\"26\"","LibellePro":"\"RGF93 / Lambert 93\"","CodeCommun":"\"95392\"","LbCommune":"\"Mériel\"","CodeDepart":"\"95\"","LbDepartem":"\"Val-d'Oise\"","CodeRegion":"\"11\"","LbRegion":"\"Île-de-France\"","CdMasseDEa":"\"HR228A\"","CdEuMasseD":"\"FRHR228A\"","NomMasseDE":"\"L Oise du confluent de l Esches  exclu  au confluent de la Seine  exclu\"","CdEuSsBass":"\"FRH_IF\"","NomSsBassi":"\"Ile de France\"","CdBassinDC":"\"H\"","CdEuBassin":"\"FRH\"","NomEuBassi":"\"La Seine et les cours d'eau côtiers normands\"","CdTronconH":"\"H2270100\"","CdCoursdEa":"\"H---0100\"","NomCoursdE":"\"L'Oise\"","CodeTypEth":"\"2\"","LibelleTyp":"\"Station qualité située sur un cours d'eau\"","ComStation":null,"DateCreati":"2010-03-08","DateArretA":null,"DateMAJInf":"2010-03-08","FinaliteSt":"\"RCS\"","LocPrecise":"\"Non renseignée\"","CodeNature":"\"M\"","LibelleNat":"\"Station de mesure Manuelle\"","AltitudePo":25,"PkPointTro":null,"PremierMoi":null,"Superficie":null,"Superfic_1":null,"DatePrelev":"2024-12-18","Temp":"8.8 °C","pH":"8.3 unité pH","Conducti":"649 µS/cm","Odissous":"9.8 mg(O2)/L","MES":"9.8 mg/L"},"geometry":{"type":"Point","coordinates":[2.20406,49.08437]}},
{"type":"Feature","properties":{"CdStationM":"03139000","LbStationM":"\"L'OISE A AUVERS-SUR-OISE 2\"","DurStation":null,"CoordXStat":640003.0,"CoordYStat":6885897,"CdProjStat":"\"26\"","LibellePro":"\"RGF93 / Lambert 93\"","CodeCommun":"\"95039\"","LbCommune":"\"Auvers-sur-Oise\"","CodeDepart":"\"95\"","LbDepartem":"\"Val-d'Oise\"","CodeRegion":"\"11\"","LbRegion":"\"Île-de-France\"","CdMasseDEa":null,"CdEuMasseD":null,"NomMasseDE":null,"CdEuSsBass":null,"NomSsBassi":null,"CdBassinDC":null,"CdEuBassin":null,"NomEuBassi":null,"CdTronconH":"\"H2270100\"","CdCoursdEa":null,"NomCoursdE":null,"CodeTypEth":"\"2\"","LibelleTyp":"\"Station qualité située sur un cours d'eau\"","ComStation":null,"DateCreati":"2010-03-08","DateArretA":null,"DateMAJInf":"2010-03-08","FinaliteSt":"\"0\"","LocPrecise":"\"Non renseignée\"","CodeNature":"\"M\"","LibelleNat":"\"Station de mesure Manuelle\"","AltitudePo":0,"PkPointTro":null,"PremierMoi":null,"Superficie":null,"Superfic_1":null,"DatePrelev":"2024-12-19","Temp":"8.1 °C","pH":"8.2 unité pH","Conducti":"648 µS/cm","Odissous":"9.7 mg(O2)/L","MES":"9.9 mg/L"},"geometry":{"type":"Point","coordinates":[2.17893,49.07012]}},
{"type":"Feature","properties":{"CdStationM":"03140358","LbStationM":"\"LA COULEUVRE A SANTEUIL 1\"","DurStation":null,"CoordXStat":623192.0,"CoordYStat":6891741,"CdProjStat":"\"26\"","LibellePro":"\"RGF93 / Lambert 93\"","CodeCommun":"\"95584\"","LbCommune":"\"Santeuil\"","CodeDepart":"\"95\"","LbDepartem":"\"Val-d'Oise\"","CodeRegion":"\"11\"","LbRegion":"\"Île-de-France\"","CdMasseDEa":"\"HR229-H2286000\"","CdEuMasseD":"\"FRHR229-H2286000\"","NomMasseDE":"\"ruisseau la couleuvre\"","CdEuSsBass":"\"FRH_IF\"","NomSsBassi":"\"Ile de France\"","CdBassinDC":"\"H\"","CdEuBassin":"\"FRH\"","NomEuBassi":"\"La Seine et les cours d'eau côtiers normands\"","CdTronconH":"\"H2286000\"","CdCoursdEa":"\"H2286000\"","NomCoursdE":"\"La Couleuvre\"","CodeTypEth":"\"2\"","LibelleTyp":"\"Station qualité située sur un cours d'eau\"","ComStation":null,"DateCreati":"2010-03-08","DateArretA":null,"DateMAJInf":"2012-10-29","FinaliteSt":"\"0\"","LocPrecise":"\"Non renseignée\"","CodeNature":"\"M\"","LibelleNat":"\"Station de mesure Manuelle\"","AltitudePo":60,"PkPointTro":null,"PremierMoi":null,"Superficie":null,"Superfic_1":null,"DatePrelev":"2024-12-19","Temp":"9.5 °C","pH":"8.1 unité pH","Conducti":"777 µS/cm","Odissous":"9.1 mg(O2)/L","MES":"9 mg/L"},"geometry":{"type":"Point","coordinates":[1.94783,49.12087]}},
{"type":"Feature","properties":{"CdStationM":"03140400","LbStationM":"\"LA VIOSNE A ABLEIGES 1\"","DurStation":null,"CoordXStat":625887.0,"CoordYStat":6887993,"CdProjStat":"\"26\"","LibellePro":"\"RGF93 / Lambert 93\"","CodeCommun":"\"95002\"","LbCommune":"\"Ableiges\"","CodeDepart":"\"95\"","LbDepartem":"\"Val-d'Oise\"","CodeRegion":"\"11\"","LbRegion":"\"Île-de-France\"","CdMasseDEa":"\"HR229\"","CdEuMasseD":"\"FRHR229\"","NomMasseDE":"\"la Viosne de sa source au confluent de l Oise  exclu\"","CdEuSsBass":"\"FRH_IF\"","NomSsBassi":"\"Ile de France\"","CdBassinDC":"\"H\"","CdEuBassin":"\"FRH\"","NomEuBassi":"\"La Seine et les cours d'eau côtiers normands\"","CdTronconH":"\"H2280600\"","CdCoursdEa":"\"H2280600\"","NomCoursdE":"\"La Viosne\"","CodeTypEth":"\"2\"","LibelleTyp":"\"Station qualité située sur un cours d'eau\"","ComStation":null,"DateCreati":"2010-03-08","DateArretA":null,"DateMAJInf":"2010-03-08","FinaliteSt":"\"RCS\"","LocPrecise":"\"Non renseignée\"","CodeNature":"\"M\"","LibelleNat":"\"Station de mesure Manuelle\"","AltitudePo":56,"PkPointTro":null,"PremierMoi":null,"Superficie":null,"Superfic_1":null,"DatePrelev":"2024-12-19","Temp":"9.6 °C","pH":"8.2 unité pH","Conducti":"846 µS/cm","Odissous":"9.9 mg(O2)/L","MES":"9.6 mg/L"},"geometry":{"type":"Point","coordinates":[1.9854,49.08749]}},
{"type":"Feature","properties":{"CdStationM":"03140490","LbStationM":"\"LA VIOSNE A PONTOISE 1\"","DurStation":null,"CoordXStat":633227.0,"CoordYStat":6884005,"CdProjStat":"\"26\"","LibellePro":"\"RGF93 / Lambert 93\"","CodeCommun":"\"95500\"","LbCommune":"\"Pontoise\"","CodeDepart":"\"95\"","LbDepartem":"\"Val-d'Oise\"","CodeRegion":"\"11\"","LbRegion":"\"Île-de-France\"","CdMasseDEa":"\"HR229\"","CdEuMasseD":"\"FRHR229\"","NomMasseDE":"\"la Viosne de sa source au confluent de l Oise  exclu\"","CdEuSsBass":"\"FRH_IF\"","NomSsBassi":"\"Ile de France\"","CdBassinDC":"\"H\"","CdEuBassin":"\"FRH\"","NomEuBassi":"\"La Seine et les cours d'eau côtiers normands\"","CdTronconH":"\"H2280600\"","CdCoursdEa":"\"H2280600\"","NomCoursdE":"\"La Viosne\"","CodeTypEth":"\"2\"","LibelleTyp":"\"Station qualité située sur un cours d'eau\"","ComStation":null,"DateCreati":"2010-03-08","DateArretA":null,"DateMAJInf":"2010-03-08","FinaliteSt":"\"0\"","LocPrecise":"\"Non renseignée\"","CodeNature":"\"M\"","LibelleNat":"\"Station de mesure Manuelle\"","AltitudePo":36,"PkPointTro":null,"PremierMoi":null,"Superficie":null,"Superfic_1":null,"DatePrelev":"2024-12-19","Temp":"9.9 °C","pH":"8.2 unité pH","Conducti":"835 µS/cm","Odissous":"9.8 mg(O2)/L","MES":"18 mg/L"},"geometry":{"type":"Point","coordinates":[2.08651,49.05244]}},
{"type":"Feature","properties":{"CdStationM":"03141000","LbStationM":"\"L'OISE A CERGY 1\"","DurStation":null,"CoordXStat":631196.0,"CoordYStat":6881724,"CdProjStat":"\"26\"","LibellePro":"\"RGF93 / Lambert 93\"","CodeCommun":"\"95127\"","LbCommune":"\"Cergy\"","CodeDepart":"\"95\"","LbDepartem":"\"Val-d'Oise\"","CodeRegion":"\"11\"","LbRegion":"\"Île-de-France\"","CdMasseDEa":"\"HR228A\"","CdEuMasseD":"\"FRHR228A\"","NomMasseDE":"\"L Oise du confluent de l Esches  exclu  au confluent de la Seine  exclu\"","CdEuSsBass":"\"FRH_IF\"","NomSsBassi":"\"Ile de France\"","CdBassinDC":"\"H\"","CdEuBassin":"\"FRH\"","NomEuBassi":"\"La Seine et les cours d'eau côtiers normands\"","CdTronconH":"\"H2290100\"","CdCoursdEa":"\"H---0100\"","NomCoursdE":"\"L'Oise\"","CodeTypEth":"\"2\"","LibelleTyp":"\"Station qualité située sur un cours d'eau\"","ComStation":null,"DateCreati":"2010-03-08","DateArretA":null,"DateMAJInf":"2010-03-08","FinaliteSt":"\"0\"","LocPrecise":"\"Non renseignée\"","CodeNature":"\"M\"","LibelleNat":"\"Station de mesure Manuelle\"","AltitudePo":25,"PkPointTro":null,"PremierMoi":null,"Superficie":null,"Superfic_1":null,"DatePrelev":"2024-12-19","Temp":"7.9 °C","pH":"8.2 unité pH","Conducti":"661 µS/cm","Odissous":"9.9 mg(O2)/L","MES":"97 mg/L"},"geometry":{"type":"Point","coordinates":[2.0591,49.03172]}},
{"type":"Feature","properties":{"CdStationM":"03167000","LbStationM":"\"LE SAUSSERON A NESLES-LA-VALLEE 1\"","DurStation":null,"CoordXStat":639528.0,"CoordYStat":6892124,"CdProjStat":"\"26\"","LibellePro":"\"RGF93 / Lambert 93\"","CodeCommun":"\"95446\"","LbCommune":"\"Nesles-la-Vallée\"","CodeDepart":"\"95\"","LbDepartem":"\"Val-d'Oise\"","CodeRegion":"\"11\"","LbRegion":"\"Île-de-France\"","CdMasseDEa":"\"HR228B\"","CdEuMasseD":"\"FRHR228B\"","NomMasseDE":"\"le Sausseron de sa source au confluent de l Oise  exclu\"","CdEuSsBass":"\"FRH_IF\"","NomSsBassi":"\"Ile de France\"","CdBassinDC":"\"H\"","CdEuBassin":"\"FRH\"","NomEuBassi":"\"La Seine et les cours d'eau côtiers normands\"","CdTronconH":"\"H2269000\"","CdCoursdEa":"\"H2269000\"","NomCoursdE":"\"Le Sausseron\"","CodeTypEth":"\"2\"","LibelleTyp":"\"Station qualité située sur un cours d'eau\"","ComStation":null,"DateCreati":"2010-03-08","DateArretA":null,"DateMAJInf":"2010-03-08","FinaliteSt":"\"RCS\"","LocPrecise":"\"Non renseignée\"","CodeNature":"\"M\"","LibelleNat":"\"Station de mesure Manuelle\"","AltitudePo":39,"PkPointTro":null,"PremierMoi":null,"Superficie":null,"Superfic_1":null,"DatePrelev":"2024-12-18","Temp":"9.3 °C","pH":"8.4 unité pH","Conducti":"840 µS/cm","Odissous":"9.8 mg(O2)/L","MES":"38 mg/L"},"geometry":{"type":"Point","coordinates":[2.17154,49.12606]}},
{"type":"Feature","properties":{"CdStationM":"03177760","LbStationM":"\"L'AUBETTE A OMERVILLE 1\"","DurStation":null,"CoordXStat":605137.0,"CoordYStat":6895570,"CdProjStat":"\"26\"","LibellePro":"\"RGF93 / Lambert 93\"","CodeCommun":"\"95462\"","LbCommune":"\"Omerville\"","CodeDepart":"\"95\"","LbDepartem":"\"Val-d'Oise\"","CodeRegion":"\"11\"","LbRegion":"\"Île-de-France\"","CdMasseDEa":"\"HR240\"","CdEuMasseD":"\"FRHR240\"","NomMasseDE":"\"L Aubette de sa source au confluent de l Epte  exclu\"","CdEuSsBass":"\"FRH_SEAV\"","NomSsBassi":"\"Seine aval\"","CdBassinDC":"\"H\"","CdEuBassin":"\"FRH\"","NomEuBassi":"\"La Seine et les cours d'eau côtiers normands\"","CdTronconH":"\"H3170600\"","CdCoursdEa":"\"H3170600\"","NomCoursdE":"\"L'Aubette\"","CodeTypEth":"\"2\"","LibelleTyp":"\"Station qualité située sur un cours d'eau\"","ComStation":null,"DateCreati":"2010-03-08","DateArretA":null,"DateMAJInf":"2012-11-14","FinaliteSt":"\"0\"","LocPrecise":"\"Non renseignée\"","CodeNature":"\"M\"","LibelleNat":"\"Station de mesure Manuelle\"","AltitudePo":42,"PkPointTro":null,"PremierMoi":null,"Superficie":null,"Superfic_1":null,"DatePrelev":"2024-12-05","Temp":"9.6 °C","pH":"8.3 unité pH","Conducti":"806 µS/cm","Odissous":"9.8 mg(O2)/L","MES":"341 mg/L"},"geometry":{"type":"Point","coordinates":[1.69967,49.15287]}}
]
}
